QPS-SAR-14 (YACHIHOKO-I)
1 66316U 25252A   25328.92864530  .00006027  00000+0  52422-3 0  9997
2 66316  42.0029 173.0052 0007641  24.1382 335.9799 14.97430649  2865
ELECTRON R/B            
1 66317U 25252B   25328.97253015  .01047868  76030-5  18427-2 0  9990
2 66317  41.9918 160.9521 0164177  10.9409 349.4950 15.80997487  3005
ELECTRON KICK STAGE R/B 
1 66318U 25252C   25328.97098038  .01732577  76660-5  18670-2 0  9990
2 66318  41.9787 160.0563 0132294 164.3411 196.1599 15.93665488  3013
STARLINK-35442          
1 66319U 25253A   25329.08336806 -.02032536  00000+0 -28321-1 0  9996
2 66319  43.0002  88.0828 0001457 271.8403 347.6432 15.59649017  4181
STARLINK-34616          
1 66320U 25253B   25329.08336806 -.02034076  00000+0 -28342-1 0  9992
2 66320  43.0001  88.0772 0001509 271.1398 350.2587 15.59651129  4294
STARLINK-34615          
1 66321U 25253C   25329.08336806 -.00048401  00000+0 -56577-3 0  9991
2 66321  43.0002  88.0722 0002028 290.3034 333.4405 15.60708788  4139
STARLINK-35292          
1 66322U 25253D   25329.00004630 -.02030919  00000+0 -27898-1 0  9990
2 66322  42.9998  88.5478 0001320 284.4377 238.1057 15.60015635  4072
STARLINK-35309          
1 66323U 25253E   25329.08336806 -.02029861  00000+0 -28278-1 0  9999
2 66323  43.0002  88.0403 0001580 271.4724   5.2644 15.59647637  4092
STARLINK-35506          
1 66324U 25253F   25329.08336806 -.02035442  00000+0 -28362-1 0  9996
2 66324  43.0004  88.0581 0001479 266.0378   3.0290 15.59652934  4183
STARLINK-35504          
1 66325U 25253G   25329.08336806 -.02029496  00000+0 -28274-1 0  9991
2 66325  43.0000  88.0493 0001501 272.3744   0.5300 15.59646518  4090
STARLINK-35479          
1 66326U 25253H   25329.08336806 -.02033881  00000+0 -28339-1 0  9997
2 66326  42.9998  88.0336 0001516 266.5818  12.0715 15.59651256  4187
STARLINK-35507          
1 66327U 25253J   25329.08336806 -.02035136  00000+0 -28359-1 0  9995
2 66327  43.0004  88.0636 0001456 264.7991   2.3520 15.59652020  4182
