CCSDS_OMM_VERS = 2.0
CREATION_DATE  = 
ORIGINATOR     = 

OBJECT_NAME    = QPS-SAR-14 (YACHIHOKO-I)
OBJECT_ID      = 2025-252A
CENTER_NAME    = EARTH
REF_FRAME      = TEME
TIME_SYSTEM    = UTC
MEAN_ELEMENT_THEORY = SGP/SGP4

EPOCH          = 2025-11-24T22:17:14.953920
MEAN_MOTION    = 14.97430649
ECCENTRICITY   = .0007641
INCLINATION    = 42.0029
RA_OF_ASC_NODE = 173.0052
ARG_OF_PERICENTER = 24.1382
MEAN_ANOMALY   = 335.9799

EPHEMERIS_TYPE = 0
CLASSIFICATION_TYPE = U
NORAD_CAT_ID   = 66316
ELEMENT_SET_NO = 999
REV_AT_EPOCH   = 286
BSTAR          = .52422E-3
MEAN_MOTION_DOT = .6027E-4
MEAN_MOTION_DDOT = 0

CCSDS_OMM_VERS = 2.0
CREATION_DATE  = 
ORIGINATOR     = 

OBJECT_NAME    = ELECTRON R/B
OBJECT_ID      = 2025-252B
CENTER_NAME    = EARTH
REF_FRAME      = TEME
TIME_SYSTEM    = UTC
MEAN_ELEMENT_THEORY = SGP/SGP4

EPOCH          = 2025-11-24T23:20:26.604960
MEAN_MOTION    = 15.80997487
ECCENTRICITY   = .0164177
INCLINATION    = 41.9918
RA_OF_ASC_NODE = 160.9521
ARG_OF_PERICENTER = 10.9409
MEAN_ANOMALY   = 349.4950

EPHEMERIS_TYPE = 0
CLASSIFICATION_TYPE = U
NORAD_CAT_ID   = 66317
ELEMENT_SET_NO = 999
REV_AT_EPOCH   = 300
BSTAR          = .18427E-2
MEAN_MOTION_DOT = .1047868E-1
MEAN_MOTION_DDOT = .7603E-5

CCSDS_OMM_VERS = 2.0
CREATION_DATE  = 
ORIGINATOR     = 

OBJECT_NAME    = ELECTRON KICK STAGE R/B
OBJECT_ID      = 2025-252C
CENTER_NAME    = EARTH
REF_FRAME      = TEME
TIME_SYSTEM    = UTC
MEAN_ELEMENT_THEORY = SGP/SGP4

EPOCH          = 2025-11-24T23:18:12.704832
MEAN_MOTION    = 15.93665488
ECCENTRICITY   = .0132294
INCLINATION    = 41.9787
RA_OF_ASC_NODE = 160.0563
ARG_OF_PERICENTER = 164.3411
MEAN_ANOMALY   = 196.1599

EPHEMERIS_TYPE = 0
CLASSIFICATION_TYPE = U
NORAD_CAT_ID   = 66318
ELEMENT_SET_NO = 999
REV_AT_EPOCH   = 301
BSTAR          = .1867E-2
MEAN_MOTION_DOT = .1732577E-1
MEAN_MOTION_DDOT = .7666E-5

CCSDS_OMM_VERS = 2.0
CREATION_DATE  = 
ORIGINATOR     = 

OBJECT_NAME    = STARLINK-35442
OBJECT_ID      = 2025-253A
CENTER_NAME    = EARTH
REF_FRAME      = TEME
TIME_SYSTEM    = UTC
MEAN_ELEMENT_THEORY = SGP/SGP4

EPOCH          = 2025-11-25T02:00:03.000384
MEAN_MOTION    = 15.59649017
ECCENTRICITY   = .0001457
INCLINATION    = 43.0002
RA_OF_ASC_NODE = 88.0828
ARG_OF_PERICENTER = 271.8403
MEAN_ANOMALY   = 347.6432

EPHEMERIS_TYPE = 0
CLASSIFICATION_TYPE = U
NORAD_CAT_ID   = 66319
ELEMENT_SET_NO = 999
REV_AT_EPOCH   = 418
BSTAR          = -.28321E-1
MEAN_MOTION_DOT = -.2032536E-1
MEAN_MOTION_DDOT = 0

CCSDS_OMM_VERS = 2.0
CREATION_DATE  = 
ORIGINATOR     = 

OBJECT_NAME    = STARLINK-34616
OBJECT_ID      = 2025-253B
CENTER_NAME    = EARTH
REF_FRAME      = TEME
TIME_SYSTEM    = UTC
MEAN_ELEMENT_THEORY = SGP/SGP4

EPOCH          = 2025-11-25T02:00:03.000384
MEAN_MOTION    = 15.59651129
ECCENTRICITY   = .0001509
INCLINATION    = 43.0001
RA_OF_ASC_NODE = 88.0772
ARG_OF_PERICENTER = 271.1398
MEAN_ANOMALY   = 350.2587

EPHEMERIS_TYPE = 0
CLASSIFICATION_TYPE = U
NORAD_CAT_ID   = 66320
ELEMENT_SET_NO = 999
REV_AT_EPOCH   = 429
BSTAR          = -.28342E-1
MEAN_MOTION_DOT = -.2034076E-1
MEAN_MOTION_DDOT = 0

CCSDS_OMM_VERS = 2.0
CREATION_DATE  = 
ORIGINATOR     = 

OBJECT_NAME    = STARLINK-34615
OBJECT_ID      = 2025-253C
CENTER_NAME    = EARTH
REF_FRAME      = TEME
TIME_SYSTEM    = UTC
MEAN_ELEMENT_THEORY = SGP/SGP4

EPOCH          = 2025-11-25T02:00:03.000384
MEAN_MOTION    = 15.60708788
ECCENTRICITY   = .0002028
INCLINATION    = 43.0002
RA_OF_ASC_NODE = 88.0722
ARG_OF_PERICENTER = 290.3034
MEAN_ANOMALY   = 333.4405

EPHEMERIS_TYPE = 0
CLASSIFICATION_TYPE = U
NORAD_CAT_ID   = 66321
ELEMENT_SET_NO = 999
REV_AT_EPOCH   = 413
BSTAR          = -.56577E-3
MEAN_MOTION_DOT = -.48401E-3
MEAN_MOTION_DDOT = 0

CCSDS_OMM_VERS = 2.0
CREATION_DATE  = 
ORIGINATOR     = 

OBJECT_NAME    = STARLINK-35292
OBJECT_ID      = 2025-253D
CENTER_NAME    = EARTH
REF_FRAME      = TEME
TIME_SYSTEM    = UTC
MEAN_ELEMENT_THEORY = SGP/SGP4

EPOCH          = 2025-11-25T00:00:04.000320
MEAN_MOTION    = 15.60015635
ECCENTRICITY   = .00013209
INCLINATION    = 42.9998
RA_OF_ASC_NODE = 88.5478
ARG_OF_PERICENTER = 284.4377
MEAN_ANOMALY   = 238.1057

EPHEMERIS_TYPE = 0
CLASSIFICATION_TYPE = U
NORAD_CAT_ID   = 66322
ELEMENT_SET_NO = 999
REV_AT_EPOCH   = 407
BSTAR          = -.27897863E-1
MEAN_MOTION_DOT = -.2030919E-1
MEAN_MOTION_DDOT = 0

CCSDS_OMM_VERS = 2.0
CREATION_DATE  = 
ORIGINATOR     = 

OBJECT_NAME    = STARLINK-35309
OBJECT_ID      = 2025-253E
CENTER_NAME    = EARTH
REF_FRAME      = TEME
TIME_SYSTEM    = UTC
MEAN_ELEMENT_THEORY = SGP/SGP4

EPOCH          = 2025-11-25T02:00:03.000384
MEAN_MOTION    = 15.59647637
ECCENTRICITY   = .000158
INCLINATION    = 43.0002
RA_OF_ASC_NODE = 88.0403
ARG_OF_PERICENTER = 271.4724
MEAN_ANOMALY   = 5.2644

EPHEMERIS_TYPE = 0
CLASSIFICATION_TYPE = U
NORAD_CAT_ID   = 66323
ELEMENT_SET_NO = 999
REV_AT_EPOCH   = 409
BSTAR          = -.28278E-1
MEAN_MOTION_DOT = -.2029861E-1
MEAN_MOTION_DDOT = 0

CCSDS_OMM_VERS = 2.0
CREATION_DATE  = 
ORIGINATOR     = 

OBJECT_NAME    = STARLINK-35506
OBJECT_ID      = 2025-253F
CENTER_NAME    = EARTH
REF_FRAME      = TEME
TIME_SYSTEM    = UTC
MEAN_ELEMENT_THEORY = SGP/SGP4

EPOCH          = 2025-11-25T02:00:03.000384
MEAN_MOTION    = 15.59652934
ECCENTRICITY   = .0001479
INCLINATION    = 43.0004
RA_OF_ASC_NODE = 88.0581
ARG_OF_PERICENTER = 266.0378
MEAN_ANOMALY   = 3.0290

EPHEMERIS_TYPE = 0
CLASSIFICATION_TYPE = U
NORAD_CAT_ID   = 66324
ELEMENT_SET_NO = 999
REV_AT_EPOCH   = 418
BSTAR          = -.28362E-1
MEAN_MOTION_DOT = -.2035442E-1
MEAN_MOTION_DDOT = 0

CCSDS_OMM_VERS = 2.0
CREATION_DATE  = 
ORIGINATOR     = 

OBJECT_NAME    = STARLINK-35504
OBJECT_ID      = 2025-253G
CENTER_NAME    = EARTH
REF_FRAME      = TEME
TIME_SYSTEM    = UTC
MEAN_ELEMENT_THEORY = SGP/SGP4

EPOCH          = 2025-11-25T02:00:03.000384
MEAN_MOTION    = 15.59646518
ECCENTRICITY   = .0001501
INCLINATION    = 43.0000
RA_OF_ASC_NODE = 88.0493
ARG_OF_PERICENTER = 272.3744
MEAN_ANOMALY   = 0.5300

EPHEMERIS_TYPE = 0
CLASSIFICATION_TYPE = U
NORAD_CAT_ID   = 66325
ELEMENT_SET_NO = 999
REV_AT_EPOCH   = 409
BSTAR          = -.28274E-1
MEAN_MOTION_DOT = -.2029496E-1
MEAN_MOTION_DDOT = 0

CCSDS_OMM_VERS = 2.0
CREATION_DATE  = 
ORIGINATOR     = 

OBJECT_NAME    = STARLINK-35479
OBJECT_ID      = 2025-253H
CENTER_NAME    = EARTH
REF_FRAME      = TEME
TIME_SYSTEM    = UTC
MEAN_ELEMENT_THEORY = SGP/SGP4

EPOCH          = 2025-11-25T02:00:03.000384
MEAN_MOTION    = 15.59651256
ECCENTRICITY   = .0001516
INCLINATION    = 42.9998
RA_OF_ASC_NODE = 88.0336
ARG_OF_PERICENTER = 266.5818
MEAN_ANOMALY   = 12.0715

EPHEMERIS_TYPE = 0
CLASSIFICATION_TYPE = U
NORAD_CAT_ID   = 66326
ELEMENT_SET_NO = 999
REV_AT_EPOCH   = 418
BSTAR          = -.28339E-1
MEAN_MOTION_DOT = -.2033881E-1
MEAN_MOTION_DDOT = 0

CCSDS_OMM_VERS = 2.0
CREATION_DATE  = 
ORIGINATOR     = 

OBJECT_NAME    = STARLINK-35507
OBJECT_ID      = 2025-253J
CENTER_NAME    = EARTH
REF_FRAME      = TEME
TIME_SYSTEM    = UTC
MEAN_ELEMENT_THEORY = SGP/SGP4

EPOCH          = 2025-11-25T02:00:03.000384
MEAN_MOTION    = 15.59652020
ECCENTRICITY   = .0001456
INCLINATION    = 43.0004
RA_OF_ASC_NODE = 88.0636
ARG_OF_PERICENTER = 264.7991
MEAN_ANOMALY   = 2.3520

EPHEMERIS_TYPE = 0
CLASSIFICATION_TYPE = U
NORAD_CAT_ID   = 66327
ELEMENT_SET_NO = 999
REV_AT_EPOCH   = 418
BSTAR          = -.28359E-1
MEAN_MOTION_DOT = -.2035136E-1
MEAN_MOTION_DDOT = 0

